NORAD_CAT_ID,OBJECT_NAME,OBJECT_TYPE,EPOCH,MEAN_MOTION,ECCENTRICITY,INCLINATION,RA_OF_ASC_NODE,ARG_OF_PERICENTER,MEAN_ANOMALY,BSTAR,MEAN_MOTION_DOT,MEAN_MOTION_DDOT,TLE_LINE0,TLE_LINE1,TLE_LINE2,SEMIMAJOR_AXIS,PERIOD,APOGEE,PERIGEE,DECAYED
52090.0,STARLINK-3712,PAYLOAD,2023-11-11 08:24:39,15.08844062,0.0001618,53.217,301.9505,93.6598,266.4579,0.00033926,5.116e-05,0.0,0 STARLINK-3712,1 52090U 22029C   23315.35045201  .00005116  00000-0  33926-3 0  9994,2 52090  53.2170 301.9505 0001618  93.6598 266.4579 15.08844062 92430,6917.868,95.437,540.852,538.614,0.0
52090.0,STARLINK-3712,PAYLOAD,2023-11-11 16:21:34,15.08844795,0.000157,53.2168,300.4657,91.4092,268.708,0.00032943,4.959e-05,0.0,0 STARLINK-3712,1 52090U 22029C   23315.68165234  .00004959  00000-0  32943-3 0  9991,2 52090  53.2168 300.4657 0001570  91.4092 268.7080 15.08844795 92481,6917.866,95.437,540.817,538.645,0.0
52090.0,STARLINK-3712,PAYLOAD,2023-11-12 03:29:16,15.08840027,0.0001579,53.2167,298.3846,93.581,266.5362,0.00018261,2.619e-05,0.0,0 STARLINK-3712,1 52090U 22029C   23316.14533493  .00002619  00000-0  18261-3 0  9997,2 52090  53.2167 298.3846 0001579  93.5810 266.5362 15.08840027 92556,6917.88,95.438,540.838,538.653,0.0
52090.0,STARLINK-3712,PAYLOAD,2023-11-12 08:15:26,15.08844852,0.0001581,53.2173,297.4914,96.9021,263.2151,0.00029234,4.368e-05,0.0,0 STARLINK-3712,1 52090U 22029C   23316.34405344  .00004368  00000-0  29234-3 0  9997,2 52090  53.2173 297.4914 0001581  96.9021 263.2151 15.08844852 92586,6917.866,95.437,540.824,538.637,0.0
52090.0,STARLINK-3712,PAYLOAD,2023-11-12 22:33:54,15.0884137,0.0001583,53.2166,294.8151,92.4213,267.696,0.00019824,2.869e-05,0.0,0 STARLINK-3712,1 52090U 22029C   23316.94021565  .00002869  00000-0  19824-3 0  9990,2 52090  53.2166 294.8151 0001583  92.4213 267.6960 15.08841370 92676,6917.876,95.437,540.836,538.646,0.0
52090.0,STARLINK-3712,PAYLOAD,2023-11-13 04:55:26,15.08850375,0.0001504,53.2171,293.6247,97.8344,262.2819,0.00032622,4.909e-05,0.0,0 STARLINK-3712,1 52090U 22029C   23317.20517232  .00004909  00000-0  32622-3 0  9999,2 52090  53.2171 293.6247 0001504  97.8344 262.2819 15.08850375 92716,6917.849,95.437,540.754,538.673,0.0
52090.0,STARLINK-3712,PAYLOAD,2023-11-13 16:03:09,15.08842635,0.0001458,53.2173,291.5445,92.2561,267.8598,0.00014596,2.036e-05,0.0,0 STARLINK-3712,1 52090U 22029C   23317.66885479  .00002036  00000-0  14596-3 0  9999,2 52090  53.2173 291.5445 0001458  92.2561 267.8598 15.08842635 92785,6917.872,95.437,540.746,538.729,0.0
52090.0,STARLINK-3712,PAYLOAD,2023-11-13 22:24:41,15.08846027,0.0001479,53.2176,290.3549,90.4513,269.6648,0.00025983,3.85e-05,0.0,0 STARLINK-3712,1 52090U 22029C   23317.93381386  .00003850  00000-0  25983-3 0  9994,2 52090  53.2176 290.3549 0001479  90.4513 269.6648 15.08846027 92820,6917.862,95.437,540.75,538.704,0.0
52090.0,STARLINK-3712,PAYLOAD,2023-11-14 09:32:23,15.08849421,0.000167,53.2182,288.2737,90.0233,270.0951,0.00025939,3.844e-05,0.0,0 STARLINK-3712,1 52090U 22029C   23318.39749272  .00003844  00000-0  25939-3 0  9991,2 52090  53.2182 288.2737 0001670  90.0233 270.0951 15.08849421 92891,6917.852,95.437,540.872,538.561,0.0
52090.0,STARLINK-3712,PAYLOAD,2023-11-14 22:15:28,15.08839007,0.0001501,53.2176,285.8941,83.9681,276.1482,7.9986e-05,9.85e-06,0.0,0 STARLINK-3712,1 52090U 22029C   23318.92741709  .00000985  00000-0  79986-4 0  9992,2 52090  53.2176 285.8941 0001501  83.9681 276.1482 15.08839007 92979,6917.883,95.438,540.787,538.71,0.0
52090.0,STARLINK-3712,PAYLOAD,2023-11-15 03:01:38,15.08845993,0.0001517,53.2177,285.0025,94.8803,265.2362,0.00021341,3.111e-05,0.0,0 STARLINK-3712,1 52090U 22029C   23319.12613446  .00003111  00000-0  21341-3 0  9996,2 52090  53.2177 285.0025 0001517  94.8803 265.2362 15.08845993 93001,6917.862,95.437,540.777,538.678,0.0
52090.0,STARLINK-3712,PAYLOAD,2023-11-15 04:37:01,15.0884568,0.0001566,53.2177,284.7053,93.6283,266.4888,0.00020512,2.978e-05,0.0,0 STARLINK-3712,1 52090U 22029C   23319.19237395  .00002978  00000-0  20512-3 0  9997,2 52090  53.2177 284.7053 0001566  93.6283 266.4888 15.08845680 93011,6917.863,95.437,540.811,538.645,0.0
52090.0,STARLINK-3712,PAYLOAD,2023-11-15 22:06:15,15.08842084,0.0001861,53.2181,281.4362,88.3662,271.7544,8.4058e-05,1.05e-05,0.0,0 STARLINK-3712,1 52090U 22029C   23319.92101672  .00001050  00000-0  84058-4 0  9992,2 52090  53.2181 281.4362 0001861  88.3662 271.7544 15.08842084 93128,6917.874,95.437,541.026,538.452,0.0
52090.0,STARLINK-3712,PAYLOAD,2023-11-16 02:52:25,15.08840826,0.0001651,53.2185,280.544,89.9525,270.1656,0.0001079,1.43e-05,0.0,0 STARLINK-3712,1 52090U 22029C   23320.11973702  .00001430  00000-0  10790-3 0  9999,2 52090  53.2185 280.5440 0001651  89.9525 270.1656 15.08840826 93153,6917.878,95.438,540.885,538.601,0.0
52090.0,STARLINK-3712,PAYLOAD,2023-11-16 04:27:48,15.08840517,0.0001618,53.2186,280.2473,85.7762,274.3415,8.1588e-05,1.011e-05,0.0,0 STARLINK-3712,1 52090U 22029C   23320.18597696  .00001011  00000-0  81588-4 0  9999,2 52090  53.2186 280.2473 0001618  85.7762 274.3415 15.08840517 93164,6917.879,95.438,540.863,538.624,0.0
52090.0,STARLINK-3712,PAYLOAD,2023-11-16 21:57:02,15.0884014,0.0001825,53.2201,276.9784,103.1141,257.0054,7.4278e-05,8.94e-06,0.0,0 STARLINK-3712,1 52090U 22029C   23320.91461723  .00000894  00000-0  74278-4 0  9997,2 52090  53.2201 276.9784 0001825 103.1141 257.0054 15.08840140 93276,6917.88,95.438,541.007,538.482,0.0
52090.0,STARLINK-3712,PAYLOAD,2023-11-17 04:18:35,15.08843247,0.0001669,53.2193,275.7878,101.3635,258.7544,9.8986e-05,1.288e-05,0.0,0 STARLINK-3712,1 52090U 22029C   23321.17957572  .00001288  00000-0  98986-4 0  9998,2 52090  53.2193 275.7878 0001669 101.3635 258.7544 15.08843247 93319,6917.87,95.437,540.89,538.581,0.0
52090.0,STARLINK-3712,PAYLOAD,2023-11-17 13:50:54,15.08842281,0.0001609,53.219,274.0028,109.7617,250.3548,-0.00010168,-1.906e-05,0.0,0 STARLINK-3712,1 52090U 22029C   23321.57701410 -.00001906  00000-0 -10168-3 0  9994,2 52090  53.2190 274.0028 0001609 109.7617 250.3548 15.08842281 93376,6917.873,95.437,540.852,538.625,0.0
52090.0,STARLINK-3712,PAYLOAD,2023-11-18 04:09:23,15.08833306,0.0001629,53.22,271.3277,99.1363,260.9814,4.1594e-05,3.74e-06,0.0,0 STARLINK-3712,1 52090U 22029C   23322.17318670  .00000374  00000-0  41594-4 0  9997,2 52090  53.2200 271.3277 0001629  99.1363 260.9814 15.08833306 93467,6917.901,95.438,540.893,538.639,0.0
52090.0,STARLINK-3712,PAYLOAD,2023-11-18 05:44:46,15.088342,0.0001617,53.2201,271.0305,100.2142,259.9033,4.808e-05,4.77e-06,0.0,0 STARLINK-3712,1 52090U 22029C   23322.23942650  .00000477  00000-0  48080-4 0  9996,2 52090  53.2201 271.0305 0001617 100.2142 259.9033 15.08834200 93479,6917.898,95.438,540.882,538.644,0.0
52090.0,STARLINK-3712,PAYLOAD,2023-11-19 04:00:09,15.08846468,0.0001806,53.2196,266.8668,104.0273,256.092,0.00011644,1.566e-05,0.0,0 STARLINK-3712,1 52090U 22029C   23323.16677714  .00001566  00000-0  11644-3 0  9990,2 52090  53.2196 266.8668 0001806 104.0273 256.0920 15.08846468 93611,6917.861,95.437,540.975,538.476,0.0
52090.0,STARLINK-3712,PAYLOAD,2023-11-19 13:32:28,15.08848204,0.0001655,53.2193,265.0805,82.8445,277.2735,1.3248e-05,-7.7e-07,0.0,0 STARLINK-3712,1 52090U 22029C   23323.56421840 -.00000077  00000-0  13248-4 0  9991,2 52090  53.2193 265.0805 0001655  82.8445 277.2735 15.08848204 93673,6917.855,95.437,540.865,538.575,0.0
52090.0,STARLINK-3712,PAYLOAD,2023-11-20 03:50:57,15.08838409,0.0001437,53.2193,262.4057,89.6726,270.4431,0.00010069,1.315e-05,0.0,0 STARLINK-3712,1 52090U 22029C   23324.16038297  .00001315  00000-0  10069-3 0  9990,2 52090  53.2193 262.4057 0001437  89.6726 270.4431 15.08838409 93762,6917.885,95.438,540.744,538.756,0.0
52090.0,STARLINK-3712,PAYLOAD,2023-11-20 05:26:21,15.08829135,0.0001571,53.2192,262.1067,82.8494,277.2676,8.7488e-07,-2.74e-06,0.0,0 STARLINK-3712,1 52090U 22029C   23324.22663255 -.00000274  00000-0  87488-6 0  9991,2 52090  53.2192 262.1067 0001571  82.8494 277.2676 15.08829135 93778,6917.914,95.438,540.865,538.692,0.0
52090.0,STARLINK-3712,PAYLOAD,2023-11-20 13:23:17,15.0882216,0.000169,53.2188,260.6199,86.7666,273.352,-8.3586e-05,-1.617e-05,0.0,0 STARLINK-3712,1 52090U 22029C   23324.55784216 -.00001617  00000-0 -83586-4 0  9994,2 52090  53.2188 260.6199 0001690  86.7666 273.3520 15.08822160 93820,6917.935,95.439,540.969,538.631,0.0
52090.0,STARLINK-3712,PAYLOAD,2023-11-21 02:06:22,15.08829382,0.0001317,53.2181,258.2396,102.5277,257.5862,-9.9814e-05,-1.876e-05,0.0,0 STARLINK-3712,1 52090U 22029C   23325.08776061 -.00001876  00000-0 -99814-4 0  9990,2 52090  53.2181 258.2396 0001317 102.5277 257.5862 15.08829382 93901,6917.913,95.438,540.689,538.867,0.0
52090.0,STARLINK-3712,PAYLOAD,2023-11-21 05:17:08,15.08840397,0.000147,53.2176,257.6465,91.9917,268.1243,3.5441e-05,2.76e-06,0.0,0 STARLINK-3712,1 52090U 22029C   23325.22023230  .00000276  00000-0  35441-4 0  9996,2 52090  53.2176 257.6465 0001470  91.9917 268.1243 15.08840397 93929,6917.879,95.438,540.761,538.727,0.0
52090.0,STARLINK-3712,PAYLOAD,2023-11-22 01:57:07,15.08866084,0.0001699,53.2172,253.779,104.9208,255.1973,0.00056379,8.702e-05,0.0,0 STARLINK-3712,1 52090U 22029C   23326.08134138  .00008702  00000-0  56379-3 0  9995,2 52090  53.2172 253.7790 0001699 104.9208 255.1973 15.08866084 94056,6917.801,95.436,540.841,538.49,0.0
52090.0,STARLINK-3712,PAYLOAD,2023-11-22 05:07:54,15.08878915,0.0001747,53.217,253.1832,109.8561,250.262,0.0012278,0.00019327,0.0,0 STARLINK-3712,1 52090U 22029C   23326.21382285  .00019327  00000-0  12278-2 0  9992,2 52090  53.2170 253.1832 0001747 109.8561 250.2620 15.08878915 94078,6917.761,95.435,540.835,538.418,0.0
52090.0,STARLINK-3712,PAYLOAD,2023-11-23 00:12:31,15.08874005,0.0001853,53.2172,249.6155,114.7036,245.4149,0.00081145,0.00012662,0.0,0 STARLINK-3712,1 52090U 22029C   23327.00869633  .00012662  00000-0  81145-3 0  9992,2 52090  53.2172 249.6155 0001853 114.7036 245.4149 15.08874005 94199,6917.776,95.435,540.923,538.36,0.0
